NORAD_CAT_ID,OBJECT_NAME,OBJECT_TYPE,EPOCH,MEAN_MOTION,ECCENTRICITY,INCLINATION,RA_OF_ASC_NODE,ARG_OF_PERICENTER,MEAN_ANOMALY,BSTAR,MEAN_MOTION_DOT,MEAN_MOTION_DDOT,TLE_LINE0,TLE_LINE1,TLE_LINE2,SEMIMAJOR_AXIS,PERIOD,APOGEE,PERIGEE,DECAYED
55269.0,STARLINK-5277,PAYLOAD,2023-02-04 10:00:00,15.75126294,0.0003712,70.0001,24.3098,258.2466,9.1113,-0.0060934,-0.00829876,0.0,0 STARLINK-5277,1 55269U 23010A   23035.41667824 -.00829876  00000-0 -60934-2 0  9990,2 55269  70.0001  24.3098 0003712 258.2466   9.1113 15.75126294  3009,6722.409,91.421,346.769,341.778,0.0
55269.0,STARLINK-5277,PAYLOAD,2023-02-04 14:00:01,15.74829897,0.0003485,69.9995,23.8372,262.5507,229.5025,-0.0062101,-0.00834342,0.0,0 STARLINK-5277,1 55269U 23010A   23035.58334491 -.00834342  00000-0 -62101-2 0  9991,2 55269  69.9995  23.8372 0003485 262.5507 229.5025 15.74829897  1307,6723.252,91.438,347.46,342.774,0.0
55269.0,STARLINK-5277,PAYLOAD,2023-02-04 22:00:00,15.74231143,0.0003468,70.0001,22.894,264.9087,315.9988,-0.0063645,-0.008332,0.0,0 STARLINK-5277,1 55269U 23010A   23035.91667824 -.00833200  00000-0 -63645-2 0  9993,2 55269  70.0001  22.8940 0003468 264.9087 315.9988 15.74231143  1307,6724.957,91.473,349.154,344.49,0.0
55269.0,STARLINK-5277,PAYLOAD,2023-02-05 14:00:01,15.7304666,0.000372,69.9969,21.0009,271.665,124.8999,-0.0069392,-0.00860462,0.0,0 STARLINK-5277,1 55269U 23010A   23036.58335648 -.00860462  00000-0 -69392-2 0  9998,2 55269  69.9969  21.0009 0003720 271.6650 124.8999 15.73046660  1302,6728.332,91.542,352.7,347.694,0.0
55269.0,STARLINK-5277,PAYLOAD,2023-02-05 16:00:00,15.72869561,0.000359,69.9971,20.7654,270.8018,237.4488,-0.0065692,-0.00812976,0.0,0 STARLINK-5277,1 55269U 23010A   23036.66667824 -.00812976  00000-0 -65692-2 0  9997,2 55269  69.9971  20.7654 0003590 270.8018 237.4488 15.72869561  3208,6728.837,91.552,353.118,348.287,0.0
55269.0,STARLINK-5277,PAYLOAD,2023-02-05 22:00:00,15.72458215,0.0003513,69.9975,20.0598,267.046,216.1471,-0.0070415,-0.00852177,0.0,0 STARLINK-5277,1 55269U 23010A   23036.91667824 -.00852177  00000-0 -70415-2 0  9991,2 55269  69.9975  20.0598 0003513 267.0460 216.1471 15.72458215  1301,6730.011,91.576,354.24,349.512,0.0
55269.0,STARLINK-5277,PAYLOAD,2023-02-06 06:00:00,15.71810823,0.0003628,69.9977,19.1197,273.009,296.1938,-0.0067213,-0.00796656,0.0,0 STARLINK-5277,1 55269U 23010A   23037.25001157 -.00796656  00000-0 -67213-2 0  9991,2 55269  69.9977  19.1197 0003628 273.0090 296.1938 15.71810823  3292,6731.859,91.614,356.166,351.281,0.0
55269.0,STARLINK-5277,PAYLOAD,2023-02-06 14:00:01,15.71258354,0.0003654,69.9973,18.1802,269.1629,25.2902,-0.007556,-0.00867467,0.0,0 STARLINK-5277,1 55269U 23010A   23037.58334491 -.00867467  00000-0 -75560-2 0  9990,2 55269  69.9973  18.1802 0003654 269.1629  25.2902 15.71258354  1300,6733.437,91.646,357.762,352.841,0.0
55269.0,STARLINK-5277,PAYLOAD,2023-02-06 22:00:00,15.70636612,0.0003719,69.9976,17.2417,264.4663,114.5378,-0.0070191,-0.00792192,0.0,0 STARLINK-5277,1 55269U 23010A   23037.91667824 -.00792192  00000-0 -70191-2 0  9993,2 55269  69.9976  17.2417 0003719 264.4663 114.5378 15.70636612  1308,6735.213,91.683,359.583,354.574,0.0
55269.0,STARLINK-5277,PAYLOAD,2023-02-07 00:00:00,15.70440712,0.0003645,69.9978,17.0071,267.0664,222.9749,-0.0058851,-0.00668543,0.0,0 STARLINK-5277,1 55269U 23010A   23038.00001157 -.00668543  00000-0 -58851-2 0  9996,2 55269  69.9978  17.0071 0003645 267.0664 222.9749 15.70440712  3416,6735.774,91.694,360.094,355.183,0.0
55269.0,STARLINK-5277,PAYLOAD,2023-02-07 08:00:01,15.69879931,0.0003532,69.9985,16.0695,272.8331,300.873,0.0006111,0.00073783,0.0,0 STARLINK-5277,1 55269U 23010A   23038.33334491  .00073783  00000-0  61110-3 0  9999,2 55269  69.9985  16.0695 0003532 272.8331 300.8730 15.69879931  3463,6737.378,91.727,361.622,356.863,0.0
55269.0,STARLINK-5277,PAYLOAD,2023-02-07 14:00:01,15.6995441,0.0003432,69.9989,15.3664,269.6742,276.5054,-0.00058044,-0.0006952,0.0,0 STARLINK-5277,1 55269U 23010A   23038.58334491 -.00069520  00000-0 -58044-3 0  9994,2 55269  69.9989  15.3664 0003432 269.6742 276.5054 15.69954410  1309,6737.164,91.722,361.342,356.717,0.0
55269.0,STARLINK-5277,PAYLOAD,2023-02-07 22:00:00,15.69931352,0.0003503,70.0004,14.4291,263.986,5.5279,5.1471e-05,5.983e-05,0.0,0 STARLINK-5277,1 55269U 23010A   23038.91667824  .00005983  00000-0  51471-4 0  9999,2 55269  70.0004  14.4291 0003503 263.9860   5.5279 15.69931352  1302,6737.23,91.724,361.455,356.735,0.0
55269.0,STARLINK-5277,PAYLOAD,2023-02-08 00:00:00,15.69960387,0.0003523,70.0006,14.1948,265.6731,114.6689,-0.00045367,-0.00054494,0.0,0 STARLINK-5277,1 55269U 23010A   23039.00001157 -.00054494  00000-0 -45367-3 0  9990,2 55269  70.0006  14.1948 0003523 265.6731 114.6689 15.69960387  3565,6737.147,91.722,361.386,356.639,0.0
55269.0,STARLINK-5277,PAYLOAD,2023-02-08 14:00:01,15.69927161,0.0003426,69.9999,12.5546,267.2573,168.9445,-0.0002633,-0.00031757,0.0,0 STARLINK-5277,1 55269U 23010A   23039.58334491 -.00031757  00000-0 -26330-3 0  9999,2 55269  69.9999  12.5546 0003426 267.2573 168.9445 15.69927161  1308,6737.242,91.724,361.416,356.799,0.0
55269.0,STARLINK-5277,PAYLOAD,2023-02-08 16:00:00,15.69894379,0.0003438,70.0002,12.3203,265.34,281.7037,0.00030581,0.00036674,0.0,0 STARLINK-5277,1 55269U 23010A   23039.66667824  .00036674  00000-0  30581-3 0  9991,2 55269  70.0002  12.3203 0003438 265.3400 281.7037 15.69894379  3672,6737.336,91.726,361.517,356.885,0.0
55269.0,STARLINK-5277,PAYLOAD,2023-02-08 22:00:00,15.69953318,0.0003418,70.0005,11.6178,261.9368,257.5755,-0.00013046,-0.00015889,0.0,0 STARLINK-5277,1 55269U 23010A   23039.91667824 -.00015889  00000-0 -13046-3 0  9993,2 55269  70.0005  11.6178 0003418 261.9368 257.5755 15.69953318  1306,6737.168,91.722,361.335,356.73,0.0
55269.0,STARLINK-5277,PAYLOAD,2023-02-09 08:00:01,15.69855111,0.0003418,70.0002,10.446,275.8795,77.8462,0.00096459,0.00117068,0.0,0 STARLINK-5277,1 55269U 23010A   23040.33334491  .00117068  00000-0  96459-3 0  9991,2 55269  70.0002  10.4460 0003418 275.8795  77.8462 15.69855111  3775,6737.449,91.728,361.616,357.011,0.0
55269.0,STARLINK-5277,PAYLOAD,2023-02-09 12:00:00,15.69947163,0.0003391,69.9999,9.9775,273.3659,301.9879,-0.0003596,-0.00043271,0.0,0 STARLINK-5277,1 55269U 23010A   23040.50001157 -.00043271  00000-0 -35960-3 0  9996,2 55269  69.9999   9.9775 0003391 273.3659 301.9879 15.69947163  1300,6737.185,91.723,361.335,356.766,0.0
55269.0,STARLINK-5277,PAYLOAD,2023-02-09 22:00:00,15.69954188,0.0003418,70.0005,8.806,269.382,140.1261,-0.00034545,-0.00041597,0.0,0 STARLINK-5277,1 55269U 23010A   23040.91667824 -.00041597  00000-0 -34545-3 0  9997,2 55269  70.0005   8.8060 0003418 269.3820 140.1261 15.69954188  3867,6737.165,91.722,361.333,356.727,0.0
55269.0,STARLINK-5277,PAYLOAD,2023-02-10 03:54:25,15.69951536,0.0003728,69.9998,8.1141,270.4432,89.6337,0.00033839,0.00040722,0.0,0 STARLINK-5277,1 55269U 23010A   23041.16279023  .00040722  00000-0  33839-3 0  9997,2 55269  69.9998   8.1141 0003728 270.4432  89.6337 15.69951536  4501,6737.173,91.723,361.549,356.526,0.0
55269.0,STARLINK-5277,PAYLOAD,2023-02-10 10:01:25,15.69953588,0.000295,69.9998,7.3978,275.8385,84.2474,0.00022083,0.00026455,0.0,0 STARLINK-5277,1 55269U 23010A   23041.41765608  .00026455  00000-0  22083-3 0  9990,2 55269  69.9998   7.3978 0002950 275.8385  84.2474 15.69953588  3941,6737.167,91.722,361.019,357.044,0.0
55269.0,STARLINK-5277,PAYLOAD,2023-02-11 04:22:27,15.69914036,0.0004008,70.0001,5.2476,269.6291,90.4446,0.00019615,0.00023431,0.0,0 STARLINK-5277,1 55269U 23010A   23042.18226620  .00023431  00000-0  19615-3 0  9999,2 55269  70.0001   5.2476 0004008 269.6291  90.4446 15.69914036  4069,6737.28,91.725,361.845,356.445,0.0
55269.0,STARLINK-5277,PAYLOAD,2023-02-11 08:57:42,15.69934808,0.0003469,69.9999,4.708,270.9986,89.0812,0.00037236,0.00044821,0.0,0 STARLINK-5277,1 55269U 23010A   23042.37341426  .00044821  00000-0  37236-3 0  9997,2 55269  69.9999   4.7080 0003469 270.9986  89.0812 15.69934808  4096,6737.221,91.724,361.423,356.748,0.0
55269.0,STARLINK-5277,PAYLOAD,2023-02-12 03:18:44,15.69946441,0.0004298,70.0005,2.5604,251.3257,108.7473,0.0002803,0.00033664,0.0,0 STARLINK-5277,1 55269U 23010A   23043.13801514  .00033664  00000-0  28030-3 0  9996,2 55269  70.0005   2.5604 0004298 251.3257 108.7473 15.69946441  4212,6737.187,91.723,361.948,356.157,0.0
55269.0,STARLINK-5277,PAYLOAD,2023-02-12 09:25:44,15.69944556,0.0003456,70.0026,1.8465,261.3685,98.7119,0.00019107,0.00022844,0.0,0 STARLINK-5277,1 55269U 23010A   23043.39288018  .00022844  00000-0  19107-3 0  9995,2 55269  70.0026   1.8465 0003456 261.3685  98.7119 15.69944556  4257,6737.193,91.723,361.386,356.729,0.0
55269.0,STARLINK-5277,PAYLOAD,2023-02-13 03:46:45,15.6993231,0.0003743,70.0008,359.6951,258.0058,102.0718,4.4988e-05,5.202e-05,0.0,0 STARLINK-5277,1 55269U 23010A   23044.15747616  .00005202  00000-0  44988-4 0  9999,2 55269  70.0008 359.6951 0003743 258.0058 102.0718 15.69932310  4379,6737.228,91.724,361.614,356.571,0.0
55269.0,STARLINK-5277,PAYLOAD,2023-02-13 08:22:01,15.69935314,0.0003702,70.0006,359.1577,255.604,104.4745,4.9609e-05,5.759e-05,0.0,0 STARLINK-5277,1 55269U 23010A   23044.34862474  .00005759  00000-0  49609-4 0  9992,2 55269  70.0006 359.1577 0003702 255.6040 104.4745 15.69935314  5009,6737.219,91.724,361.578,356.59,0.0
55269.0,STARLINK-5277,PAYLOAD,2023-02-13 14:29:02,15.6992902,0.000308,70.0013,358.4398,257.3662,102.7189,2.8038e-05,3.161e-05,0.0,0 STARLINK-5277,1 55269U 23010A   23044.60349590  .00003161  00000-0  28038-4 0  9998,2 55269  70.0013 358.4398 0003080 257.3662 102.7189 15.69929020  4445,6737.237,91.724,361.177,357.027,0.0
55269.0,STARLINK-5277,PAYLOAD,2023-02-15 06:14:35,15.6991518,0.0003398,70.0002,353.7823,267.0057,93.075,-2.316e-05,-2.995e-05,0.0,0 STARLINK-5277,1 55269U 23010A   23046.26013159 -.00002995  00000-0 -23160-4 0  9998,2 55269  70.0002 353.7823 0003398 267.0057  93.0750 15.69915180  4709,6737.277,91.725,361.431,356.852,0.0
